GLOBALSTAR M094         
1 39074U 13005C   23355.97429376 -.00000089  00000+0  84257-4 0  9994
2 39074  51.9978  36.0397 0000561 138.7237 221.3672 12.62270468503790
GLOBALSTAR M096         
1 39075U 13005D   23355.98764075 -.00000104  00000+0  37433-6 0  9998
2 39075  52.0084  84.0894 0000961 126.6185 233.4770 12.62267045503046
GLOBALSTAR M078         
1 39076U 13005E   23355.80274444 -.00000084  00000+0  11020-3 0  9994
2 39076  51.9847 169.8999 0001883  74.7741 285.3334 12.62264813501292
GLOBALSTAR M095         
1 39077U 13005F   23354.79966673 -.00000090  00000+0  79155-4 0  9995
2 39077  51.9771 170.4216 0001821  90.9717 269.1358 12.62272101501020
GLOBALSTAR M087         
1 52888U 22064A   23355.52031628 -.00000100  00000+0  54615-4 0  9996
2 52888  51.9763 111.3747 0008637 269.3921  90.5990 13.37560590 73612
